{
  "type": "FeatureCollection",
  "features": [
    {
      "type": "Feature",
      "properties": {
        "norad_id": 30527,
        "name": "FENGYUN 1C DEB",
        "group": "fengyun-1c-debris",
        "lat": 71.11248890602904,
        "lon": 12.523006937850047,
        "alt_km": 1278.9124370424424,
        "timestamp": "2025-12-26T16:33:55.848493+00:00",
        "meta_object_name": "FENGYUN 1C DEB",
        "meta_object_id": "1999-025AJR",
        "meta_epoch": "2025-12-25T13:54:41.627808",
        "meta_mean_motion": 13.3106084,
        "meta_eccentricity": 0.0413674,
        "meta_inclination": 100.0629,
        "meta_ra_of_asc_node": 42.6992,
        "meta_arg_of_pericenter": 196.0708,
        "meta_mean_anomaly": 323.0163,
        "meta_ephemeris_type": 0,
        "meta_classification_type": "U",
        "meta_norad_cat_id": 30527,
        "meta_element_set_no": 999,
        "meta_rev_at_epoch": 91527,
        "meta_bstar": 0.0013705,
        "meta_mean_motion_dot": 1.002e-05,
        "meta_mean_motion_ddot": 0,
        "tle_line1": "1 30527U 99025AJR 25359.57964847  .00001002  00000+0  13705-2 0  9996",
        "tle_line2": "2 30527 100.0629  42.6992 0413674 196.0708 323.0163 13.31060840915273"
      },
      "geometry": {
        "type": "Point",
        "coordinates": [
          12.523006937850047,
          71.11248890602904
        ]
      }
    },
    {
      "type": "Feature",
      "properties": {
        "norad_id": 30528,
        "name": "FENGYUN 1C DEB",
        "group": "fengyun-1c-debris",
        "lat": -66.44115040179331,
        "lon": 29.796433607509993,
        "alt_km": 805.1055143332105,
        "timestamp": "2025-12-26T16:33:55.848503+00:00",
        "meta_object_name": "FENGYUN 1C DEB",
        "meta_object_id": "1999-025AJS",
        "meta_epoch": "2025-12-26T02:32:35.369952",
        "meta_mean_motion": 14.13511637,
        "meta_eccentricity": 0.0144085,
        "meta_inclination": 98.2371,
        "meta_ra_of_asc_node": 228.661,
        "meta_arg_of_pericenter": 187.1438,
        "meta_mean_anomaly": 327.7781,
        "meta_ephemeris_type": 0,
        "meta_classification_type": "U",
        "meta_norad_cat_id": 30528,
        "meta_element_set_no": 999,
        "meta_rev_at_epoch": 97326,
        "meta_bstar": 0.00030490894,
        "meta_mean_motion_dot": 5.95e-06,
        "meta_mean_motion_ddot": 0,
        "tle_line1": "1 30528U 99025AJS 25360.10596493  .00000595  00000+0  30491-3 0  9994",
        "tle_line2": "2 30528  98.2371 228.6610 0144085 187.1438 327.7781 14.13511637973263"
      },
      "geometry": {
        "type": "Point",
        "coordinates": [
          29.796433607509993,
          -66.44115040179331
        ]
      }
    },
    {
      "type": "Feature",
      "properties": {
        "norad_id": 30529,
        "name": "FENGYUN 1C DEB",
        "group": "fengyun-1c-debris",
        "lat": 10.701189607585434,
        "lon": 102.58596853716503,
        "alt_km": 831.5457684167959,
        "timestamp": "2025-12-26T16:33:55.848513+00:00",
        "meta_object_name": "FENGYUN 1C DEB",
        "meta_object_id": "1999-025AJT",
        "meta_epoch": "2025-12-24T05:57:54.130752",
        "meta_mean_motion": 13.71625376,
        "meta_eccentricity": 0.02299744,
        "meta_inclination": 98.487,
        "meta_ra_of_asc_node": 278.8069,
        "meta_arg_of_pericenter": 191.2594,
        "meta_mean_anomaly": 168.336,
        "meta_ephemeris_type": 0,
        "meta_classification_type": "U",
        "meta_norad_cat_id": 30529,
        "meta_element_set_no": 999,
        "meta_rev_at_epoch": 94166,
        "meta_bstar": 0.00090368707,
        "meta_mean_motion_dot": 9.47e-06,
        "meta_mean_motion_ddot": 0,
        "tle_line1": "1 30529U 99025AJT 25358.24854318  .00000947  00000+0  90369-3 0  9991",
        "tle_line2": "2 30529  98.4870 278.8069 0229974 191.2594 168.3360 13.71625376941665"
      },
      "geometry": {
        "type": "Point",
        "coordinates": [
          102.58596853716503,
          10.701189607585434
        ]
      }
    },
    {
      "type": "Feature",
      "properties": {
        "norad_id": 30530,
        "name": "FENGYUN 1C DEB",
        "group": "fengyun-1c-debris",
        "lat": 5.607711731097847,
        "lon": -140.4523129011676,
        "alt_km": 756.5216597625213,
        "timestamp": "2025-12-26T16:33:55.848522+00:00",
        "meta_object_name": "FENGYUN 1C DEB",
        "meta_object_id": "1999-025AJU",
        "meta_epoch": "2025-12-25T08:17:31.277760",
        "meta_mean_motion": 14.36801397,
        "meta_eccentricity": 0.0100443,
        "meta_inclination": 98.3949,
        "meta_ra_of_asc_node": 37.4054,
        "meta_arg_of_pericenter": 99.5172,
        "meta_mean_anomaly": 321.9939,
        "meta_ephemeris_type": 0,
        "meta_classification_type": "U",
        "meta_norad_cat_id": 30530,
        "meta_element_set_no": 999,
        "meta_rev_at_epoch": 98966,
        "meta_bstar": 0.00022547,
        "meta_mean_motion_dot": 6.62e-06,
        "meta_mean_motion_ddot": 0,
        "tle_line1": "1 30530U 99025AJU 25359.34550090  .00000662  00000+0  22547-3 0  9992",
        "tle_line2": "2 30530  98.3949  37.4054 0100443  99.5172 321.9939 14.36801397989669"
      },
      "geometry": {
        "type": "Point",
        "coordinates": [
          -140.4523129011676,
          5.607711731097847
        ]
      }
    },
    {
      "type": "Feature",
      "properties": {
        "norad_id": 30531,
        "name": "FENGYUN 1C DEB",
        "group": "fengyun-1c-debris",
        "lat": 46.13821172081911,
        "lon": -179.53389605998265,
        "alt_km": 690.3680629136716,
        "timestamp": "2025-12-26T16:33:55.848531+00:00",
        "meta_object_name": "FENGYUN 1C DEB",
        "meta_object_id": "1999-025AJV",
        "meta_epoch": "2025-12-26T06:29:46.287168",
        "meta_mean_motion": 14.62418716,
        "meta_eccentricity": 0.00262181,
        "meta_inclination": 102.3108,
        "meta_ra_of_asc_node": 192.9775,
        "meta_arg_of_pericenter": 168.7869,
        "meta_mean_anomaly": 191.3907,
        "meta_ephemeris_type": 0,
        "meta_classification_type": "U",
        "meta_norad_cat_id": 30531,
        "meta_element_set_no": 999,
        "meta_rev_at_epoch": 97893,
        "meta_bstar": 0.0042672834,
        "meta_mean_motion_dot": 0.00021691,
        "meta_mean_motion_ddot": 0,
        "tle_line1": "1 30531U 99025AJV 25360.27067462  .00021691  00000+0  42673-2 0  9999",
        "tle_line2": "2 30531 102.3108 192.9775 0026218 168.7869 191.3907 14.62418716978939"
      },
      "geometry": {
        "type": "Point",
        "coordinates": [
          -179.53389605998265,
          46.13821172081911
        ]
      }
    },
    {
      "type": "Feature",
      "properties": {
        "norad_id": 30532,
        "name": "FENGYUN 1C DEB",
        "group": "fengyun-1c-debris",
        "lat": -29.347024046164773,
        "lon": 48.99434954592166,
        "alt_km": 471.19982298443756,
        "timestamp": "2025-12-26T16:33:55.848540+00:00",
        "meta_object_name": "FENGYUN 1C DEB",
        "meta_object_id": "1999-025AJW",
        "meta_epoch": "2025-12-25T14:06:02.321568",
        "meta_mean_motion": 15.34673313,
        "meta_eccentricity": 0.0019191,
        "meta_inclination": 96.9579,
        "meta_ra_of_asc_node": 44.0159,
        "meta_arg_of_pericenter": 214.4845,
        "meta_mean_anomaly": 145.5155,
        "meta_ephemeris_type": 0,
        "meta_classification_type": "U",
        "meta_norad_cat_id": 30532,
        "meta_element_set_no": 999,
        "meta_rev_at_epoch": 97884,
        "meta_bstar": 0.013937,
        "meta_mean_motion_dot": 0.00501761,
        "meta_mean_motion_ddot": 0,
        "tle_line1": "1 30532U 99025AJW 25359.58752687  .00501761  00000+0  13937-1 0  9993",
        "tle_line2": "2 30532  96.9579  44.0159 0019191 214.4845 145.5155 15.34673313978840"
      },
      "geometry": {
        "type": "Point",
        "coordinates": [
          48.99434954592166,
          -29.347024046164773
        ]
      }
    },
    {
      "type": "Feature",
      "properties": {
        "norad_id": 30533,
        "name": "FENGYUN 1C DEB",
        "group": "fengyun-1c-debris",
        "lat": -30.613198224527412,
        "lon": 135.55038637586154,
        "alt_km": 760.6389464131043,
        "timestamp": "2025-12-26T16:33:55.848549+00:00",
        "meta_object_name": "FENGYUN 1C DEB",
        "meta_object_id": "1999-025AJX",
        "meta_epoch": "2025-12-24T20:42:58.562784",
        "meta_mean_motion": 14.54112525,
        "meta_eccentricity": 0.00810279,
        "meta_inclination": 98.8337,
        "meta_ra_of_asc_node": 128.3433,
        "meta_arg_of_pericenter": 112.7899,
        "meta_mean_anomaly": 18.0384,
        "meta_ephemeris_type": 0,
        "meta_classification_type": "U",
        "meta_norad_cat_id": 30533,
        "meta_element_set_no": 999,
        "meta_rev_at_epoch": 97997,
        "meta_bstar": 0.0030460631,
        "meta_mean_motion_dot": 0.00013416,
        "meta_mean_motion_ddot": 0,
        "tle_line1": "1 30533U 99025AJX 25358.86317781  .00013416  00000+0  30461-2 0  9993",
        "tle_line2": "2 30533  98.8337 128.3433 0081027 112.7899  18.0384 14.54112525979978"
      },
      "geometry": {
        "type": "Point",
        "coordinates": [
          135.55038637586154,
          -30.613198224527412
        ]
      }
    }
  ]
}